[{"OBJECT_NAME":"SL-8 R/B","OBJECT_ID":"1991-006B","EPOCH":"2026-03-08T12:35:24.836928","MEAN_MOTION":13.7749406,"ECCENTRICITY":0.00231522,"INCLINATION":82.9466,"RA_OF_ASC_NODE":170.912,"ARG_OF_PERICENTER":41.4944,"MEAN_ANOMALY":329.1171,"EPHEMERIS_TYPE":0,"CLASSIFICATION_TYPE":"U","NORAD_CAT_ID":21088,"ELEMENT_SET_NO":999,"REV_AT_EPOCH":76391,"BSTAR":7.139946e-5,"MEAN_MOTION_DOT":8.7e-7,"MEAN_MOTION_DDOT":0},{"OBJECT_NAME":"OKEAN-3","OBJECT_ID":"1991-039A","EPOCH":"2026-03-08T14:45:43.405344","MEAN_MOTION":15.04795373,"ECCENTRICITY":0.00140512,"INCLINATION":82.5187,"RA_OF_ASC_NODE":337.8845,"ARG_OF_PERICENTER":342.2244,"MEAN_ANOMALY":17.8489,"EPHEMERIS_TYPE":0,"CLASSIFICATION_TYPE":"U","NORAD_CAT_ID":21397,"ELEMENT_SET_NO":999,"REV_AT_EPOCH":86487,"BSTAR":0.00035627401,"MEAN_MOTION_DOT":5.064e-5,"MEAN_MOTION_DDOT":0},{"OBJECT_NAME":"COSMOS 2151","OBJECT_ID":"1991-042A","EPOCH":"2026-03-08T13:11:06.506304","MEAN_MOTION":15.00100454,"ECCENTRICITY":0.00140136,"INCLINATION":82.4931,"RA_OF_ASC_NODE":84.7766,"ARG_OF_PERICENTER":67.2753,"MEAN_ANOMALY":292.9951,"EPHEMERIS_TYPE":0,"CLASSIFICATION_TYPE":"U","NORAD_CAT_ID":21422,"ELEMENT_SET_NO":999,"REV_AT_EPOCH":86302,"BSTAR":0.0001823947,"MEAN_MOTION_DOT":2.304e-5,"MEAN_MOTION_DDOT":0},{"OBJECT_NAME":"SL-14 R/B","OBJECT_ID":"1991-042B","EPOCH":"2026-03-08T11:23:38.461344","MEAN_MOTION":14.81828561,"ECCENTRICITY":0.00157363,"INCLINATION":82.4921,"RA_OF_ASC_NODE":221.3215,"ARG_OF_PERICENTER":242.9717,"MEAN_ANOMALY":116.9891,"EPHEMERIS_TYPE":0,"CLASSIFICATION_TYPE":"U","NORAD_CAT_ID":21423,"ELEMENT_SET_NO":999,"REV_AT_EPOCH":85289,"BSTAR":8.9942405e-5,"MEAN_MOTION_DOT":7.35e-6,"MEAN_MOTION_DDOT":0},{"OBJECT_NAME":"ERS-1","OBJECT_ID":"1991-050A","EPOCH":"2026-03-08T12:22:31.680480","MEAN_MOTION":14.39448449,"ECCENTRICITY":0.00315527,"INCLINATION":98.7884,"RA_OF_ASC_NODE":85.7208,"ARG_OF_PERICENTER":203.9802,"MEAN_ANOMALY":155.9917,"EPHEMERIS_TYPE":0,"CLASSIFICATION_TYPE":"U","NORAD_CAT_ID":21574,"ELEMENT_SET_NO":999,"REV_AT_EPOCH":81556,"BSTAR":0.00015465057,"MEAN_MOTION_DOT":4.38e-6,"MEAN_MOTION_DDOT":0},{"OBJECT_NAME":"ARIANE 40 R/B","OBJECT_ID":"1991-050F","EPOCH":"2026-03-08T13:39:55.287360","MEAN_MOTION":14.4289284,"ECCENTRICITY":0.0004354,"INCLINATION":98.2014,"RA_OF_ASC_NODE":119.8479,"ARG_OF_PERICENTER":83.7464,"MEAN_ANOMALY":276.4223,"EPHEMERIS_TYPE":0,"CLASSIFICATION_TYPE":"U","NORAD_CAT_ID":21610,"ELEMENT_SET_NO":999,"REV_AT_EPOCH":81883,"BSTAR":0.00013563818,"MEAN_MOTION_DOT":4.11e-6,"MEAN_MOTION_DDOT":0},{"OBJECT_NAME":"INTERCOSMOS 25","OBJECT_ID":"1991-086A","EPOCH":"2026-03-08T10:03:58.585248","MEAN_MOTION":12.11995335,"ECCENTRICITY":0.14869878,"INCLINATION":82.6047,"RA_OF_ASC_NODE":310.7767,"ARG_OF_PERICENTER":119.6668,"MEAN_ANOMALY":256.0747,"EPHEMERIS_TYPE":0,"CLASSIFICATION_TYPE":"U","NORAD_CAT_ID":21819,"ELEMENT_SET_NO":999,"REV_AT_EPOCH":49653,"BSTAR":0.00033514029,"MEAN_MOTION_DOT":1.745e-5,"MEAN_MOTION_DDOT":0},{"OBJECT_NAME":"SL-8 R/B","OBJECT_ID":"1992-008B","EPOCH":"2026-03-08T15:09:19.738080","MEAN_MOTION":13.75969836,"ECCENTRICITY":0.00354803,"INCLINATION":82.9224,"RA_OF_ASC_NODE":268.5657,"ARG_OF_PERICENTER":136.2159,"MEAN_ANOMALY":287.0199,"EPHEMERIS_TYPE":0,"CLASSIFICATION_TYPE":"U","NORAD_CAT_ID":21876,"ELEMENT_SET_NO":999,"REV_AT_EPOCH":70927,"BSTAR":1.468706e-6,"MEAN_MOTION_DOT":1.7e-7,"MEAN_MOTION_DDOT":0},{"OBJECT_NAME":"SL-8 R/B","OBJECT_ID":"1992-020B","EPOCH":"2026-03-08T14:41:04.699680","MEAN_MOTION":13.75549393,"ECCENTRICITY":0.00277065,"INCLINATION":82.9338,"RA_OF_ASC_NODE":154.5617,"ARG_OF_PERICENTER":301.9575,"MEAN_ANOMALY":172.2486,"EPHEMERIS_TYPE":0,"CLASSIFICATION_TYPE":"U","NORAD_CAT_ID":21938,"ELEMENT_SET_NO":999,"REV_AT_EPOCH":70098,"BSTAR":8.1184703e-5,"MEAN_MOTION_DOT":9.3e-7,"MEAN_MOTION_DDOT":0},{"OBJECT_NAME":"USA 81","OBJECT_ID":"1992-023A","EPOCH":"2026-03-08T14:39:45.206496","MEAN_MOTION":14.32367697,"ECCENTRICITY":0.00025033,"INCLINATION":85.0087,"RA_OF_ASC_NODE":132.0635,"ARG_OF_PERICENTER":78.7085,"MEAN_ANOMALY":281.4389,"EPHEMERIS_TYPE":0,"CLASSIFICATION_TYPE":"U","NORAD_CAT_ID":21949,"ELEMENT_SET_NO":999,"REV_AT_EPOCH":9463,"BSTAR":7.6640265e-5,"MEAN_MOTION_DOT":2.27e-6,"MEAN_MOTION_DDOT":0},{"OBJECT_NAME":"COSMOS 2219","OBJECT_ID":"1992-076A","EPOCH":"2026-03-08T14:26:01.523328","MEAN_MOTION":14.14092167,"ECCENTRICITY":0.00190658,"INCLINATION":71.0632,"RA_OF_ASC_NODE":20.342,"ARG_OF_PERICENTER":208.5278,"MEAN_ANOMALY":151.4802,"EPHEMERIS_TYPE":0,"CLASSIFICATION_TYPE":"U","NORAD_CAT_ID":22219,"ELEMENT_SET_NO":999,"REV_AT_EPOCH":71822,"BSTAR":0.00011411906,"MEAN_MOTION_DOT":1.71e-6,"MEAN_MOTION_DDOT":0},{"OBJECT_NAME":"SL-16 R/B","OBJECT_ID":"1992-076B","EPOCH":"2026-03-08T15:03:59.868864","MEAN_MOTION":14.16859973,"ECCENTRICITY":0.00104715,"INCLINATION":71.0007,"RA_OF_ASC_NODE":190.6101,"ARG_OF_PERICENTER":98.3561,"MEAN_ANOMALY":272.8031,"EPHEMERIS_TYPE":0,"CLASSIFICATION_TYPE":"U","NORAD_CAT_ID":22220,"ELEMENT_SET_NO":999,"REV_AT_EPOCH":72168,"BSTAR":-4.7521873e-5,"MEAN_MOTION_DOT":-1.43e-6,"MEAN_MOTION_DDOT":0},{"OBJECT_NAME":"COSMOS 2221","OBJECT_ID":"1992-080A","EPOCH":"2026-03-08T15:13:14.719296","MEAN_MOTION":14.9619621,"ECCENTRICITY":0.00139477,"INCLINATION":82.5009,"RA_OF_ASC_NODE":280.0923,"ARG_OF_PERICENTER":190.6659,"MEAN_ANOMALY":169.427,"EPHEMERIS_TYPE":0,"CLASSIFICATION_TYPE":"U","NORAD_CAT_ID":22236,"ELEMENT_SET_NO":999,"REV_AT_EPOCH":78063,"BSTAR":0.00019839269,"MEAN_MOTION_DOT":2.265e-5,"MEAN_MOTION_DDOT":0},{"OBJECT_NAME":"SL-16 R/B","OBJECT_ID":"1992-093B","EPOCH":"2026-03-08T06:07:48.786528","MEAN_MOTION":14.15448322,"ECCENTRICITY":0.00063763,"INCLINATION":71.0241,"RA_OF_ASC_NODE":7.2762,"ARG_OF_PERICENTER":295.1908,"MEAN_ANOMALY":64.8553,"EPHEMERIS_TYPE":0,"CLASSIFICATION_TYPE":"U","NORAD_CAT_ID":22285,"ELEMENT_SET_NO":999,"REV_AT_EPOCH":71295,"BSTAR":-8.0217479e-5,"MEAN_MOTION_DOT":-2.04e-6,"MEAN_MOTION_DDOT":0},{"OBJECT_NAME":"COSMOS 2228","OBJECT_ID":"1992-094A","EPOCH":"2026-03-08T14:01:34.513536","MEAN_MOTION":14.97184073,"ECCENTRICITY":0.00168097,"INCLINATION":82.5155,"RA_OF_ASC_NODE":238.3685,"ARG_OF_PERICENTER":308.7222,"MEAN_ANOMALY":51.2497,"EPHEMERIS_TYPE":0,"CLASSIFICATION_TYPE":"U","NORAD_CAT_ID":22286,"ELEMENT_SET_NO":999,"REV_AT_EPOCH":77589,"BSTAR":0.00026219676,"MEAN_MOTION_DOT":3.064e-5,"MEAN_MOTION_DDOT":0},{"OBJECT_NAME":"SL-16 R/B","OBJECT_ID":"1993-016B","EPOCH":"2026-03-08T13:52:55.545024","MEAN_MOTION":14.15308411,"ECCENTRICITY":0.00116926,"INCLINATION":71.0069,"RA_OF_ASC_NODE":217.5144,"ARG_OF_PERICENTER":315.6837,"MEAN_ANOMALY":44.3348,"EPHEMERIS_TYPE":0,"CLASSIFICATION_TYPE":"U","NORAD_CAT_ID":22566,"ELEMENT_SET_NO":999,"REV_AT_EPOCH":70201,"BSTAR":0.00011903052,"MEAN_MOTION_DOT":1.84e-6,"MEAN_MOTION_DDOT":0},{"OBJECT_NAME":"COSMOS 2242","OBJECT_ID":"1993-024A","EPOCH":"2026-03-08T15:11:30.170112","MEAN_MOTION":14.96544338,"ECCENTRICITY":0.00152405,"INCLINATION":82.5155,"RA_OF_ASC_NODE":267.7274,"ARG_OF_PERICENTER":312.7128,"MEAN_ANOMALY":47.281,"EPHEMERIS_TYPE":0,"CLASSIFICATION_TYPE":"U","NORAD_CAT_ID":22626,"ELEMENT_SET_NO":999,"REV_AT_EPOCH":78023,"BSTAR":0.00026125408,"MEAN_MOTION_DOT":3.002e-5,"MEAN_MOTION_DDOT":0}]
